PWSA_L_00004001-01
1 10000U 22813ZC  26075.70050926  .00000000  00000+0  00000-0 0  9995
2 10000  40.0000   0.0000 0000000   0.0000   0.0000 13.70437709    19
PWSA_L_00004001-02
1 10001U 26028YS  26075.70050926  .00000000  00000+0  00000-0 0  9998
2 10001  40.0000   0.0000 0000000   0.0000  36.0000 13.70437709    19
PWSA_L_00004001-03
1 10002U 22905VQ  26075.70050926  .00000000  00000+0  00000-0 0  9999
2 10002  40.0000   0.0000 0000000   0.0000  72.0000 13.70437709    10
PWSA_L_00004001-04
1 10003U 22967JW  26075.70050926  .00000000  00000+0  00000-0 0  9998
2 10003  40.0000   0.0000 0000000   0.0000 108.0000 13.70437709    11
PWSA_L_00004001-05
1 10004U 24666YV  26075.70050926  .00000000  00000+0  00000-0 0  9997
2 10004  40.0000   0.0000 0000000   0.0000 144.0000 13.70437709    12
PWSA_L_00004001-06
1 10005U 24995UF  26075.70050926  .00000000  00000+0  00000-0 0  9993
2 10005  40.0000   0.0000 0000000   0.0000 180.0000 13.70437709    13
